{"type":"FeatureCollection","properties":{"quelle":"OpenStreetMap-Mitwirkende, ODbL. Stadtgrenze: Relation 62478. Wupper: waterway=river, name=Wupper, auf das Stadtgebiet beschnitten.","abgerufen":"2026-08-03"},"features":[{"type":"Feature","properties":{"rolle":"stadtgrenze","name":"Wuppertal"},"geometry":{"type":"Polygon","coordinates":[[[7.13607,51.16638],[7.13598,51.16572],[7.13391,51.16609],[7.13336,51.16633],[7.13268,51.16816],[7.13261,51.16903],[7.13215,51.16985],[7.13112,51.17087],[7.13087,51.17146],[7.12837,51.17425],[7.12776,51.1746],[7.12335,51.17542],[7.12249,51.1758],[7.12176,51.17651],[7.12149,51.17714],[7.12166,51.17761],[7.12408,51.17918],[7.12535,51.18038],[7.12577,51.18123],[7.12568,51.18261],[7.12481,51.18286],[7.1149,51.18388],[7.11415,51.18384],[7.11367,51.18406],[7.11329,51.18635],[7.11394,51.18749],[7.11114,51.18992],[7.10997,51.1916],[7.10713,51.19487],[7.10656,51.19571],[7.10651,51.19643],[7.10781,51.20135],[7.10788,51.20244],[7.10768,51.20306],[7.10714,51.20372],[7.1041,51.20566],[7.10376,51.20591],[7.10366,51.20626],[7.1045,51.20756],[7.10713,51.20991],[7.10763,51.21064],[7.10771,51.21138],[7.10736,51.21217],[7.1053,51.21372],[7.10492,51.21454],[7.10353,51.21475],[7.10334,51.21502],[7.10287,51.21524],[7.10279,51.21576],[7.10248,51.2159],[7.10225,51.21625],[7.10119,51.21647],[7.10036,51.21629],[7.09755,51.21735],[7.09607,51.21727],[7.09514,51.21757],[7.09423,51.21808],[7.09383,51.21878],[7.09304,51.21912],[7.09275,51.21953],[7.0928,51.21983],[7.09244,51.22024],[7.09187,51.22038],[7.08633,51.21981],[7.08554,51.21997],[7.0847,51.21975],[7.08249,51.22021],[7.08075,51.21925],[7.07791,51.21862],[7.0769,51.21813],[7.07643,51.21833],[7.0756,51.2183],[7.06582,51.21734],[7.06421,51.21659],[7.06411,51.21637],[7.06017,51.21413],[7.05969,51.2131],[7.05866,51.21195],[7.05821,51.21084],[7.05767,51.21016],[7.0561,51.21058],[7.05257,51.21058],[7.04797,51.20889],[7.04732,51.20908],[7.04481,51.21048],[7.04497,51.2106],[7.04465,51.2105],[7.0444,51.21064],[7.04367,51.21131],[7.04225,51.21204],[7.04178,51.21284],[7.04161,51.21371],[7.03973,51.21431],[7.03794,51.21457],[7.03633,51.2152],[7.03489,51.21654],[7.03464,51.21722],[7.03608,51.21735],[7.0358,51.21765],[7.03777,51.21835],[7.03902,51.21858],[7.03835,51.22023],[7.03665,51.22012],[7.03579,51.22064],[7.03853,51.2212],[7.04079,51.2209],[7.04167,51.22112],[7.04204,51.22143],[7.04199,51.22159],[7.04067,51.22262],[7.0407,51.22316],[7.0405,51.22384],[7.042,51.22454],[7.0415,51.22527],[7.04359,51.2255],[7.04364,51.2253],[7.04541,51.22642],[7.04469,51.22679],[7.04504,51.22707],[7.04548,51.22799],[7.04495,51.22873],[7.04725,51.22968],[7.04748,51.22954],[7.04862,51.2303],[7.05005,51.23094],[7.05114,51.23106],[7.05181,51.2309],[7.05172,51.23248],[7.05104,51.23236],[7.05055,51.23251],[7.0488,51.23201],[7.04735,51.23128],[7.04713,51.23151],[7.04368,51.22966],[7.04166,51.22791],[7.0407,51.22755],[7.03794,51.23038],[7.03775,51.23099],[7.03703,51.23202],[7.03762,51.23215],[7.03786,51.2334],[7.03738,51.23374],[7.03636,51.23411],[7.03864,51.23532],[7.0364,51.23642],[7.03598,51.23705],[7.0352,51.23766],[7.03264,51.23788],[7.03263,51.23899],[7.033,51.23925],[7.03027,51.24097],[7.02718,51.24198],[7.02407,51.24342],[7.02343,51.24407],[7.02208,51.24369],[7.02195,51.24333],[7.0215,51.24343],[7.0219,51.24271],[7.02147,51.24264],[7.01497,51.2446],[7.01407,51.24541],[7.01445,51.24578],[7.01485,51.24589],[7.0154,51.24708],[7.01597,51.24768],[7.02014,51.24965],[7.02137,51.24997],[7.02466,51.24865],[7.02616,51.2495],[7.02712,51.24953],[7.02672,51.24919],[7.02946,51.24682],[7.03196,51.24732],[7.03384,51.24749],[7.03436,51.24715],[7.03477,51.24715],[7.03354,51.24869],[7.03343,51.24908],[7.03579,51.24934],[7.03635,51.24904],[7.03865,51.25035],[7.03891,51.25098],[7.04067,51.25296],[7.04095,51.25412],[7.04093,51.25471],[7.04142,51.25468],[7.04152,51.2549],[7.0433,51.25531],[7.04397,51.2556],[7.04426,51.2559],[7.04595,51.25637],[7.04681,51.25642],[7.05154,51.25603],[7.05289,51.25648],[7.05377,51.25699],[7.05431,51.25619],[7.05533,51.25628],[7.05586,51.2556],[7.05695,51.25593],[7.05711,51.25657],[7.05782,51.25674],[7.05913,51.25649],[7.05952,51.25682],[7.05987,51.25754],[7.05976,51.25769],[7.06003,51.25782],[7.06171,51.25759],[7.06231,51.2581],[7.0625,51.25884],[7.06233,51.25881],[7.06273,51.25965],[7.06281,51.26025],[7.06322,51.26025],[7.06382,51.26146],[7.06446,51.26226],[7.06527,51.26278],[7.06546,51.26316],[7.06831,51.26479],[7.06916,51.26565],[7.0719,51.26736],[7.07201,51.26727],[7.0729,51.2677],[7.07278,51.26861],[7.07295,51.26883],[7.07298,51.26863],[7.07336,51.26937],[7.07419,51.27025],[7.07454,51.27088],[7.07472,51.2708],[7.0745,51.27105],[7.07484,51.27192],[7.07688,51.27501],[7.0775,51.27647],[7.07875,51.27807],[7.07893,51.27879],[7.08063,51.28038],[7.08116,51.28073],[7.08379,51.28137],[7.0842,51.28084],[7.08474,51.28102],[7.08512,51.28071],[7.08672,51.28144],[7.08717,51.281],[7.08923,51.28167],[7.09108,51.28096],[7.09199,51.28168],[7.09464,51.2821],[7.09562,51.28256],[7.09765,51.28259],[7.09718,51.28301],[7.09642,51.28311],[7.09576,51.28344],[7.09582,51.28361],[7.0954,51.28456],[7.09717,51.28444],[7.09744,51.28455],[7.09744,51.28487],[7.09796,51.28505],[7.09817,51.28545],[7.09778,51.28579],[7.09609,51.28602],[7.09568,51.28661],[7.09553,51.28741],[7.0952,51.28804],[7.0985,51.28969],[7.09899,51.28974],[7.09849,51.29131],[7.09797,51.29118],[7.09641,51.29188],[7.09577,51.29229],[7.09576,51.29287],[7.09637,51.29398],[7.09633,51.29429],[7.09614,51.29443],[7.09724,51.29585],[7.09911,51.29776],[7.10301,51.30095],[7.10536,51.30217],[7.1083,51.30286],[7.10823,51.30297],[7.11398,51.30398],[7.11527,51.30444],[7.11698,51.30596],[7.11829,51.3051],[7.11826,51.30459],[7.1196,51.30366],[7.12008,51.30305],[7.12011,51.30254],[7.1204,51.30235],[7.12013,51.30166],[7.1211,51.30126],[7.12172,51.30176],[7.12274,51.30204],[7.12325,51.30164],[7.12401,51.30159],[7.1241,51.30174],[7.12595,51.30251],[7.12882,51.30417],[7.12848,51.30445],[7.12895,51.3044],[7.13202,51.30614],[7.13374,51.30682],[7.13405,51.3068],[7.13434,51.30637],[7.13471,51.3062],[7.13625,51.3059],[7.14,51.30643],[7.14201,51.30639],[7.14206,51.3066],[7.14279,51.30654],[7.14276,51.30639],[7.14337,51.30627],[7.14449,51.30685],[7.14463,51.30648],[7.14485,51.3066],[7.1448,51.30672],[7.14632,51.30755],[7.14934,51.3081],[7.1544,51.30959],[7.15584,51.30986],[7.15777,51.30974],[7.16068,51.31014],[7.16218,51.3106],[7.165,51.31194],[7.16634,51.31228],[7.16704,51.31283],[7.16838,51.31267],[7.1685,51.31254],[7.16925,51.31263],[7.1697,51.31241],[7.17009,51.31252],[7.17045,51.31219],[7.17029,51.31202],[7.17048,51.31181],[7.1706,51.31101],[7.17138,51.31085],[7.17142,51.31062],[7.17178,51.31051],[7.17191,51.31065],[7.17235,51.31067],[7.17285,51.31035],[7.17286,51.31013],[7.17477,51.31024],[7.17494,51.30993],[7.17581,51.30996],[7.17594,51.30953],[7.17671,51.30934],[7.17684,51.30904],[7.17711,51.30891],[7.177,51.30883],[7.17738,51.30855],[7.17751,51.30824],[7.1774,51.30798],[7.17757,51.30793],[7.17765,51.30749],[7.17736,51.3069],[7.17812,51.30658],[7.17824,51.30623],[7.18021,51.30617],[7.18025,51.30571],[7.18074,51.30575],[7.18074,51.30548],[7.17946,51.30381],[7.17883,51.30335],[7.17887,51.30325],[7.17802,51.30296],[7.17678,51.30194],[7.17538,51.30124],[7.17276,51.29951],[7.17107,51.29876],[7.16901,51.29829],[7.16865,51.29759],[7.17136,51.29795],[7.17238,51.29828],[7.17646,51.29826],[7.17929,51.29847],[7.18113,51.29883],[7.1812,51.29874],[7.18154,51.29899],[7.18224,51.29913],[7.18275,51.29825],[7.1838,51.29862],[7.18443,51.29765],[7.18546,51.29778],[7.18523,51.29757],[7.18559,51.29683],[7.18577,51.29596],[7.18822,51.29641],[7.18966,51.29505],[7.19151,51.29564],[7.19163,51.2951],[7.19299,51.29539],[7.19341,51.29498],[7.19435,51.29513],[7.19448,51.29485],[7.19504,51.29497],[7.1955,51.29472],[7.1964,51.29494],[7.19706,51.29489],[7.19784,51.29458],[7.19983,51.29508],[7.19943,51.29553],[7.20035,51.2957],[7.20138,51.29648],[7.20139,51.29727],[7.20116,51.29781],[7.20314,51.29889],[7.2049,51.30032],[7.20621,51.30084],[7.20641,51.30105],[7.20628,51.3012],[7.2078,51.30202],[7.20821,51.30157],[7.2109,51.30242],[7.21188,51.30229],[7.21367,51.30256],[7.2136,51.30266],[7.21427,51.30276],[7.2151,51.30318],[7.21919,51.30416],[7.22035,51.30496],[7.22326,51.30526],[7.22321,51.30605],[7.2209,51.30768],[7.22467,51.30889],[7.22577,51.30787],[7.22598,51.30817],[7.22748,51.30876],[7.22829,51.30938],[7.22851,51.31017],[7.22903,51.31055],[7.23375,51.30811],[7.2369,51.30996],[7.23854,51.31047],[7.2398,51.31114],[7.2412,51.31164],[7.24116,51.31184],[7.24094,51.31189],[7.24183,51.31199],[7.24413,51.31268],[7.24408,51.31308],[7.24387,51.31331],[7.24571,51.3136],[7.24625,51.31337],[7.24858,51.31493],[7.25023,51.31454],[7.25051,51.3148],[7.25124,51.31425],[7.25388,51.31529],[7.25353,51.31566],[7.25642,51.31679],[7.25681,51.31637],[7.25677,51.31619],[7.25697,51.3161],[7.25942,51.3163],[7.26045,51.31672],[7.26085,51.3171],[7.26176,51.3172],[7.26393,51.3181],[7.26463,51.31604],[7.26464,51.31504],[7.26314,51.31425],[7.26013,51.31335],[7.26063,51.31288],[7.26166,51.31321],[7.26247,51.31318],[7.26478,51.31263],[7.26585,51.31173],[7.26611,51.31133],[7.26602,51.31085],[7.26578,51.31002],[7.26451,51.30804],[7.26406,51.30759],[7.2636,51.30744],[7.26348,51.30681],[7.26281,51.3059],[7.26289,51.30494],[7.26255,51.30411],[7.26267,51.30393],[7.2617,51.29818],[7.26068,51.2954],[7.26017,51.29495],[7.26036,51.29476],[7.25677,51.29189],[7.25606,51.2906],[7.25607,51.2899],[7.25635,51.28898],[7.25624,51.28833],[7.25588,51.28763],[7.25605,51.28747],[7.25582,51.28723],[7.25573,51.28665],[7.25582,51.28599],[7.25651,51.28463],[7.25638,51.28365],[7.25737,51.28321],[7.25945,51.28359],[7.26102,51.28471],[7.26096,51.28491],[7.26157,51.285],[7.26356,51.28595],[7.26473,51.2852],[7.26512,51.28421],[7.26661,51.28463],[7.27333,51.27811],[7.27478,51.27786],[7.27579,51.27485],[7.27776,51.27232],[7.27293,51.27053],[7.27289,51.27012],[7.27206,51.2687],[7.27017,51.26654],[7.26992,51.26515],[7.26799,51.26212],[7.26675,51.26063],[7.26777,51.25575],[7.26888,51.25553],[7.26991,51.25553],[7.26995,51.25465],[7.27057,51.255],[7.27086,51.25504],[7.2709,51.25485],[7.27133,51.25511],[7.27163,51.25511],[7.27203,51.25587],[7.27223,51.25939],[7.27346,51.2597],[7.27518,51.25946],[7.27553,51.25917],[7.27661,51.25759],[7.27768,51.25572],[7.27952,51.2535],[7.28281,51.25006],[7.28368,51.24972],[7.28955,51.24959],[7.29162,51.25038],[7.29877,51.25006],[7.29953,51.25032],[7.30032,51.25108],[7.30152,51.25265],[7.30237,51.25311],[7.30316,51.25321],[7.30472,51.25278],[7.30646,51.25179],[7.30669,51.25155],[7.30662,51.25137],[7.30409,51.2497],[7.30236,51.24904],[7.29958,51.24913],[7.29753,51.2486],[7.29653,51.24786],[7.29648,51.24739],[7.29681,51.24652],[7.2978,51.24567],[7.30019,51.24442],[7.30231,51.24394],[7.3028,51.24368],[7.30377,51.24249],[7.30605,51.24095],[7.30758,51.23836],[7.30708,51.23777],[7.3075,51.23697],[7.30779,51.23673],[7.30794,51.23506],[7.30986,51.23525],[7.30961,51.23571],[7.3098,51.23578],[7.3107,51.2352],[7.31274,51.23457],[7.31343,51.23416],[7.31202,51.23383],[7.31171,51.23292],[7.3106,51.23097],[7.3079,51.22994],[7.30745,51.22965],[7.30686,51.22871],[7.3058,51.22852],[7.30463,51.22765],[7.29989,51.22578],[7.30023,51.22532],[7.30016,51.22522],[7.30042,51.2251],[7.29939,51.22439],[7.29917,51.22428],[7.29884,51.22444],[7.29686,51.22391],[7.29753,51.22312],[7.29806,51.22336],[7.29939,51.22317],[7.29977,51.22272],[7.29969,51.22212],[7.30012,51.22125],[7.29947,51.22111],[7.29977,51.22082],[7.2988,51.22066],[7.29905,51.22033],[7.29843,51.22027],[7.29821,51.22066],[7.29599,51.2204],[7.29518,51.22067],[7.29496,51.21994],[7.29562,51.21925],[7.29731,51.21878],[7.29784,51.21814],[7.29856,51.21762],[7.29844,51.2175],[7.29874,51.21739],[7.2975,51.21659],[7.29808,51.2153],[7.29804,51.2148],[7.29816,51.2147],[7.29854,51.21487],[7.29916,51.21336],[7.29973,51.21344],[7.30022,51.21296],[7.30058,51.21228],[7.30007,51.21072],[7.3002,51.21062],[7.30085,51.21087],[7.30122,51.21018],[7.3007,51.21009],[7.29993,51.20962],[7.30002,51.20888],[7.29953,51.20783],[7.29804,51.20646],[7.29734,51.20607],[7.29757,51.20568],[7.29614,51.20562],[7.29579,51.20537],[7.29541,51.20563],[7.29509,51.20553],[7.29426,51.206],[7.29387,51.20603],[7.29372,51.2063],[7.29283,51.20684],[7.29256,51.20677],[7.29179,51.20728],[7.29129,51.20736],[7.29095,51.20792],[7.2906,51.20807],[7.29054,51.20841],[7.29074,51.20858],[7.29061,51.20876],[7.29031,51.20877],[7.29032,51.20912],[7.29005,51.20965],[7.28953,51.20998],[7.28894,51.21001],[7.2876,51.20923],[7.28646,51.20902],[7.2847,51.2099],[7.281,51.20871],[7.27967,51.20994],[7.27841,51.21063],[7.27757,51.2109],[7.27658,51.20874],[7.27249,51.20862],[7.27263,51.20843],[7.27173,51.20851],[7.27151,51.20932],[7.27166,51.20935],[7.27188,51.20985],[7.26563,51.209],[7.26462,51.21006],[7.26585,51.21072],[7.26637,51.21078],[7.26668,51.21111],[7.2631,51.21189],[7.26251,51.21173],[7.26121,51.21171],[7.25996,51.21128],[7.25689,51.21312],[7.26048,51.21422],[7.26028,51.215],[7.26066,51.21606],[7.26064,51.21745],[7.2609,51.21754],[7.26068,51.21826],[7.25779,51.21808],[7.25777,51.21925],[7.25565,51.21944],[7.25582,51.21953],[7.25347,51.22124],[7.25333,51.22168],[7.25284,51.2215],[7.25283,51.2219],[7.25299,51.22212],[7.25169,51.22218],[7.25172,51.22249],[7.24733,51.2227],[7.2463,51.22166],[7.24487,51.22285],[7.24404,51.22253],[7.24385,51.22295],[7.24331,51.22345],[7.24211,51.22271],[7.24142,51.22324],[7.2363,51.22621],[7.236,51.22586],[7.23482,51.22683],[7.23469,51.22679],[7.23482,51.22642],[7.2335,51.22609],[7.23343,51.22476],[7.23118,51.22478],[7.22917,51.22455],[7.22569,51.22336],[7.22337,51.22205],[7.22325,51.22211],[7.22236,51.22145],[7.2202,51.22138],[7.21903,51.22153],[7.21744,51.22129],[7.21728,51.22091],[7.21609,51.22006],[7.21511,51.21904],[7.2137,51.21816],[7.21384,51.21806],[7.21197,51.21703],[7.20883,51.21613],[7.20872,51.21595],[7.20822,51.21599],[7.20804,51.21532],[7.20736,51.21531],[7.20749,51.21423],[7.20497,51.21336],[7.203,51.21227],[7.20286,51.21139],[7.19667,51.21297],[7.19667,51.21403],[7.19619,51.21586],[7.19469,51.21572],[7.19342,51.21498],[7.19151,51.21417],[7.19051,51.21463],[7.18854,51.21402],[7.186,51.21405],[7.18482,51.21351],[7.18471,51.2136],[7.18231,51.21288],[7.17844,51.21365],[7.17727,51.21414],[7.17707,51.21385],[7.17609,51.21426],[7.17496,51.21365],[7.17314,51.21349],[7.17247,51.21362],[7.17095,51.21307],[7.1695,51.21214],[7.16834,51.21198],[7.16765,51.21163],[7.16675,51.21155],[7.16556,51.21119],[7.16521,51.21039],[7.16273,51.20855],[7.16267,51.20838],[7.16293,51.20788],[7.16273,51.20757],[7.16334,51.20706],[7.16377,51.20643],[7.16383,51.20528],[7.16405,51.20499],[7.16382,51.20477],[7.16405,51.20467],[7.16295,51.20444],[7.16175,51.2035],[7.16211,51.20325],[7.16145,51.20254],[7.161,51.2028],[7.16003,51.2023],[7.1596,51.20267],[7.15815,51.20213],[7.15822,51.20205],[7.15577,51.20199],[7.15551,51.20149],[7.15574,51.20147],[7.15559,51.20101],[7.1565,51.20095],[7.15617,51.20062],[7.15681,51.2005],[7.15719,51.19988],[7.15636,51.19885],[7.15701,51.1984],[7.15601,51.197],[7.15487,51.19575],[7.15329,51.19448],[7.15311,51.19366],[7.15379,51.19286],[7.1536,51.19245],[7.15273,51.19233],[7.15039,51.1931],[7.14913,51.19373],[7.1483,51.19363],[7.14814,51.1935],[7.14815,51.1932],[7.1485,51.19252],[7.1485,51.19216],[7.14811,51.1917],[7.14709,51.19137],[7.14676,51.19099],[7.1453,51.19093],[7.14497,51.19046],[7.14357,51.19074],[7.14277,51.19051],[7.14214,51.19059],[7.14144,51.19017],[7.14135,51.18964],[7.14207,51.18891],[7.14381,51.18802],[7.14454,51.18784],[7.14594,51.18683],[7.14611,51.1864],[7.14535,51.18578],[7.14528,51.18553],[7.14563,51.185],[7.14652,51.18518],[7.14716,51.18513],[7.14806,51.18427],[7.14799,51.18361],[7.14951,51.18271],[7.14974,51.18181],[7.15001,51.18141],[7.14994,51.18112],[7.15045,51.18006],[7.15003,51.17973],[7.14987,51.17891],[7.15043,51.17612],[7.15069,51.17573],[7.15178,51.17513],[7.15205,51.1748],[7.1509,51.17364],[7.15019,51.17358],[7.1483,51.17288],[7.14803,51.17256],[7.1483,51.17221],[7.14819,51.17183],[7.14796,51.17137],[7.14771,51.17125],[7.14593,51.17194],[7.14548,51.17251],[7.1447,51.17306],[7.14406,51.17297],[7.14369,51.17248],[7.14246,51.17169],[7.14217,51.17128],[7.14005,51.17004],[7.13751,51.1689],[7.13634,51.16761],[7.13607,51.16638]]]}},{"type":"Feature","properties":{"rolle":"fluss","name":"Wupper"},"geometry":{"type":"MultiLineString","coordinates":[[[7.16356,51.25853],[7.16356,51.25793],[7.16233,51.25705],[7.16113,51.25661],[7.15991,51.25652]],[[7.30658,51.24005],[7.30558,51.2412],[7.30464,51.24166],[7.30335,51.24253],[7.30003,51.24499]],[[7.10646,51.21284],[7.10736,51.21217],[7.10767,51.21161],[7.1077,51.21086],[7.10713,51.20991]],[[7.10452,51.20539],[7.10714,51.20372],[7.10768,51.20306],[7.10788,51.20244],[7.10781,51.20135],[7.10651,51.19643]],[[7.12481,51.18286],[7.12542,51.18277],[7.12574,51.18249],[7.12577,51.18123],[7.12535,51.18038],[7.12408,51.17918],[7.12166,51.17761]],[[7.27208,51.25631],[7.27189,51.25556],[7.27107,51.25393],[7.27068,51.25345],[7.26954,51.25305],[7.26862,51.25299],[7.26679,51.25304],[7.26629,51.25317],[7.26262,51.25469],[7.26057,51.25523],[7.25878,51.25553],[7.25747,51.25543],[7.25581,51.25476],[7.25494,51.25464],[7.25402,51.25473],[7.25298,51.25503],[7.25036,51.25518],[7.24702,51.25402],[7.24452,51.25374],[7.24061,51.25428],[7.23783,51.25432],[7.23331,51.2555],[7.23187,51.25634],[7.23085,51.25728],[7.23021,51.25808],[7.23019,51.25867],[7.23055,51.2593],[7.23193,51.26007],[7.23243,51.2607],[7.23452,51.26514],[7.2348,51.26564],[7.23569,51.26663],[7.23586,51.26706],[7.23562,51.26784],[7.23336,51.26995],[7.23268,51.2704],[7.23128,51.27108],[7.22779,51.27206],[7.22666,51.27272],[7.22547,51.27417],[7.22421,51.27463],[7.22182,51.27472],[7.21632,51.27426],[7.21574,51.27402],[7.21505,51.27351],[7.21416,51.27322],[7.21249,51.27373],[7.2101,51.27385],[7.20923,51.27377],[7.2078,51.27325],[7.20707,51.27284],[7.20654,51.27211],[7.20637,51.27129],[7.20558,51.27079],[7.20497,51.27066],[7.20342,51.2707],[7.20258,51.27057],[7.20022,51.2696],[7.19948,51.26947],[7.19608,51.26972],[7.19186,51.26779],[7.19029,51.26723],[7.1857,51.26656],[7.18413,51.26666],[7.18172,51.26721],[7.17987,51.26707],[7.17927,51.26687],[7.17844,51.26562],[7.17762,51.26478],[7.17541,51.26345],[7.17439,51.26261],[7.17248,51.26211],[7.16975,51.26199],[7.16637,51.26072],[7.16577,51.26037],[7.16425,51.25899],[7.16356,51.25853],[7.16102,51.25749],[7.15991,51.25652],[7.15824,51.25563],[7.15732,51.25489],[7.15684,51.25472],[7.15609,51.2547],[7.15542,51.25489],[7.15424,51.25595],[7.15307,51.25665],[7.1524,51.25682],[7.15136,51.25684],[7.14987,51.25651],[7.14742,51.25565],[7.14632,51.25557],[7.14397,51.25572],[7.1422,51.25525],[7.14093,51.25439],[7.14044,51.25421],[7.13783,51.25355],[7.13723,51.25326],[7.13245,51.25175],[7.13186,51.25128],[7.13111,51.24995],[7.13066,51.24969],[7.12997,51.24959],[7.12775,51.24979],[7.12709,51.24957],[7.12506,51.24844],[7.1241,51.24817],[7.12285,51.24802],[7.12194,51.24806],[7.12123,51.24821],[7.11996,51.24884],[7.11692,51.249],[7.11173,51.24805],[7.10942,51.24794],[7.10856,51.24777],[7.10799,51.24748],[7.10685,51.24646],[7.10579,51.24497],[7.10523,51.24392],[7.10396,51.24339],[7.10348,51.24302],[7.10322,51.2414],[7.10328,51.23863],[7.10299,51.23725],[7.1028,51.23707],[7.10073,51.23674],[7.09789,51.23699],[7.09218,51.23715],[7.09132,51.23698],[7.09079,51.23667],[7.09061,51.23643],[7.09053,51.23595],[7.09066,51.23559],[7.09094,51.23529],[7.09366,51.23339],[7.09666,51.23103],[7.09732,51.23066],[7.09867,51.23012],[7.10009,51.22936],[7.10227,51.2289],[7.10413,51.22833],[7.10891,51.22746],[7.11005,51.22702],[7.11047,51.22654],[7.1106,51.22532],[7.1101,51.22446],[7.10936,51.22386],[7.10672,51.2226],[7.10587,51.22169],[7.1057,51.22105],[7.10561,51.21939],[7.10642,51.21797],[7.10648,51.21716],[7.10621,51.21666],[7.10506,51.21536],[7.10487,51.21479],[7.10492,51.21454]],[[7.30074,51.25164],[7.29953,51.25032],[7.29905,51.25011],[7.29717,51.25005],[7.29438,51.25025]],[[7.28735,51.24966],[7.28561,51.24958],[7.28368,51.24972],[7.28281,51.25006],[7.2824,51.25045]]]}}]}